[{"OBJECT_NAME":"SCS-01 F","OBJECT_ID":"2025-100F","EPOCH":"2026-03-09T22:02:58.148448","MEAN_MOTION":15.20887248,"ECCENTRICITY":0.00088681,"INCLINATION":97.3705,"RA_OF_ASC_NODE":143.8729,"ARG_OF_PERICENTER":296.4312,"MEAN_ANOMALY":63.6013,"EPHEMERIS_TYPE":0,"CLASSIFICATION_TYPE":"U","NORAD_CAT_ID":63987,"ELEMENT_SET_NO":999,"REV_AT_EPOCH":4554,"BSTAR":0.0009265562,"MEAN_MOTION_DOT":0.0002047,"MEAN_MOTION_DDOT":0},{"OBJECT_NAME":"MAUVE","OBJECT_ID":"2025-276CU","EPOCH":"2026-03-09T17:14:44.951712","MEAN_MOTION":15.19228326,"ECCENTRICITY":5.768e-5,"INCLINATION":97.4273,"RA_OF_ASC_NODE":144.0489,"ARG_OF_PERICENTER":359.247,"MEAN_ANOMALY":0.8764,"EPHEMERIS_TYPE":0,"CLASSIFICATION_TYPE":"U","NORAD_CAT_ID":66756,"ELEMENT_SET_NO":999,"REV_AT_EPOCH":1532,"BSTAR":0.00039937228,"MEAN_MOTION_DOT":8.348e-5,"MEAN_MOTION_DDOT":0}]
